start=new Date('2021-10-06T00:00:00.000Z').valueOf();
sats=[{"INCLINATION":"53.0564","OBJECT_ID":"2020-001J","SITE":"AFETR","ARG_OF_PERICENTER":"101.2408","OBJECT_NAME":"STARLINK-1104","LAUNCH_DATE":"2020-01-07","TLE_LINE2":"2 44922  53.0564  42.1767 0001216 101.2408 258.8718 15.06397165 96242","FILE":"3145988","REV_AT_EPOCH":"9624","RCS_SIZE":"LARGE","MEAN_ELEMENT_THEORY":"SGP4","COUNTRY_CODE":"US","EPOCH":"2021-10-05T10:58:41.960640","MEAN_MOTION_DOT":"0.00000046","ECCENTRICITY":"0.00012160","BSTAR":"0.00002195200000","PERIAPSIS":"546.380","TLE_LINE1":"1 44922U 20001J   21278.45743010  .00000046  00000-0  21952-4 0  9991","CENTER_NAME":"EARTH","APOAPSIS":"548.064","MEAN_ANOMALY":"258.8718","REF_FRAME":"TEME","SEMIMAJOR_AXIS":"6925.357","GP_ID":"186274296","PERIOD":"95.592","EPHEMERIS_TYPE":"0","MEAN_MOTION":"15.06397165","CLASSIFICATION_TYPE":"U","RA_OF_ASC_NODE":"42.1767","TIME_SYSTEM":"UTC","NORAD_CAT_ID":"44922","OBJECT_TYPE":"PAYLOAD","MEAN_MOTION_DDOT":"0.0000000000000","DECAY_DATE":null,"ELEMENT_SET_NO":"999"},{"EPHEMERIS_TYPE":"0","PERIOD":"95.593","SEMIMAJOR_AXIS":"6925.387","GP_ID":"186275048","REF_FRAME":"TEME","MEAN_ANOMALY":"260.2264","CENTER_NAME":"EARTH","APOAPSIS":"548.179","TLE_LINE1":"1 44923U 20001K   21278.35053908 -.00000677  00000-0 -26582-4 0  9997","PERIAPSIS":"546.326","ELEMENT_SET_NO":"999","DECAY_DATE":null,"MEAN_MOTION_DDOT":"0.0000000000000","OBJECT_TYPE":"PAYLOAD","NORAD_CAT_ID":"44923","TIME_SYSTEM":"UTC","CLASSIFICATION_TYPE":"U","RA_OF_ASC_NODE":"42.6579","MEAN_MOTION":"15.06387368","OBJECT_NAME":"STARLINK-1106","ARG_OF_PERICENTER":"99.8876","SITE":"AFETR","OBJECT_ID":"2020-001K","INCLINATION":"53.0566","BSTAR":"-0.00002658200000","ECCENTRICITY":"0.00013380","MEAN_MOTION_DOT":"-0.00000677","EPOCH":"2021-10-05T08:24:46.576512","COUNTRY_CODE":"US","MEAN_ELEMENT_THEORY":"SGP4","REV_AT_EPOCH":"9622","RCS_SIZE":"LARGE","FILE":"3145988","TLE_LINE2":"2 44923  53.0566  42.6579 0001338  99.8876 260.2264 15.06387368 96222","LAUNCH_DATE":"2020-01-07"},{"RA_OF_ASC_NODE":"43.8921","CLASSIFICATION_TYPE":"U","MEAN_MOTION":"15.06393236","OBJECT_TYPE":"PAYLOAD","TIME_SYSTEM":"UTC","NORAD_CAT_ID":"44924","MEAN_MOTION_DDOT":"0.0000000000000","DECAY_DATE":null,"ELEMENT_SET_NO":"999","TLE_LINE1":"1 44924U 20001L   21278.07410438  .00001635  00000-0  12867-3 0  9995","CENTER_NAME":"EARTH","APOAPSIS":"547.997","PERIAPSIS":"546.471","SEMIMAJOR_AXIS":"6925.369","GP_ID":"186275798","MEAN_ANOMALY":"260.5518","REF_FRAME":"TEME","EPHEMERIS_TYPE":"0","PERIOD":"95.593","FILE":"3145988","LAUNCH_DATE":"2020-01-07","TLE_LINE2":"2 44924  53.0554  43.8921 0001102  99.5595 260.5518 15.06393236 96189","MEAN_ELEMENT_THEORY":"SGP4","RCS_SIZE":"LARGE","REV_AT_EPOCH":"9618","MEAN_MOTION_DOT":"0.00001635","ECCENTRICITY":"0.00011020","COUNTRY_CODE":"US","EPOCH":"2021-10-05T01:46:42.618432","BSTAR":"0.00012867000000","INCLINATION":"53.0554","OBJECT_ID":"2020-001L","SITE":"AFETR","ARG_OF_PERICENTER":"99.5595","OBJECT_NAME":"STARLINK-1111"},{"ECCENTRICITY":"0.00015500","MEAN_MOTION_DOT":"-0.00000641","EPOCH":"2021-10-05T08:30:04.936320","COUNTRY_CODE":"US","BSTAR":"-0.00002414200000","FILE":"3145988","TLE_LINE2":"2 44925  53.0553  42.6319 0001550 112.7963 247.3189 15.06388223 96223","LAUNCH_DATE":"2020-01-07","MEAN_ELEMENT_THEORY":"SGP4","REV_AT_EPOCH":"9622","RCS_SIZE":"LARGE","ARG_OF_PERICENTER":"112.7963","SITE":"AFETR","OBJECT_NAME":"STARLINK-1112","OBJECT_ID":"2020-001M","INCLINATION":"53.0553","MEAN_MOTION_DDOT":"0.0000000000000","ELEMENT_SET_NO":"999","DECAY_DATE":null,"RA_OF_ASC_NODE":"42.6319","CLASSIFICATION_TYPE":"U","MEAN_MOTION":"15.06388223","OBJECT_TYPE":"PAYLOAD","NORAD_CAT_ID":"44925","TIME_SYSTEM":"UTC","EPHEMERIS_TYPE":"0","PERIOD":"95.593","CENTER_NAME":"EARTH","APOAPSIS":"548.323","TLE_LINE1":"1 44925U 20001M   21278.35422380 -.00000641  00000-0 -24142-4 0  9994","PERIAPSIS":"546.176","SEMIMAJOR_AXIS":"6925.385","GP_ID":"186274546","REF_FRAME":"TEME","MEAN_ANOMALY":"247.3189"},{"ELEMENT_SET_NO":"999","DECAY_DATE":null,"MEAN_MOTION_DDOT":"0.0000000000000","TIME_SYSTEM":"UTC","NORAD_CAT_ID":"44926","OBJECT_TYPE":"PAYLOAD","MEAN_MOTION":"15.05578009","CLASSIFICATION_TYPE":"U","RA_OF_ASC_NODE":"42.6226","PERIOD":"95.644","EPHEMERIS_TYPE":"0","MEAN_ANOMALY":"257.6151","REF_FRAME":"TEME","GP_ID":"186274796","SEMIMAJOR_AXIS":"6927.869","PERIAPSIS":"548.747","TLE_LINE1":"1 44926U 20001N   21278.35881755 -.00000330  00000-0 -34765-5 0  9998","CENTER_NAME":"EARTH","APOAPSIS":"550.721","BSTAR":"-0.00000347650000","COUNTRY_CODE":"US","EPOCH":"2021-10-05T08:36:41.836320","MEAN_MOTION_DOT":"-0.00000330","ECCENTRICITY":"0.00014240","RCS_SIZE":"LARGE","REV_AT_EPOCH":"9695","MEAN_ELEMENT_THEORY":"SGP4","LAUNCH_DATE":"2020-01-07","TLE_LINE2":"2 44926  53.0025  42.6226 0001424 102.4996 257.6151 15.05578009 96952","FILE":"3145988","OBJECT_NAME":"STARLINK-1113","SITE":"AFETR","ARG_OF_PERICENTER":"102.4996","INCLINATION":"53.0025","OBJECT_ID":"2020-001N"},{"GP_ID":"186275548","SEMIMAJOR_AXIS":"6925.366","REF_FRAME":"TEME","MEAN_ANOMALY":"257.5509","APOAPSIS":"548.293","CENTER_NAME":"EARTH","TLE_LINE1":"1 44927U 20001P   21278.36528158  .00000079  00000-0  24220-4 0  9997","PERIAPSIS":"546.168","EPHEMERIS_TYPE":"0","PERIOD":"95.592","OBJECT_TYPE":"PAYLOAD","NORAD_CAT_ID":"44927","TIME_SYSTEM":"UTC","CLASSIFICATION_TYPE":"U","RA_OF_ASC_NODE":"42.5835","MEAN_MOTION":"15.06394422","ELEMENT_SET_NO":"999","DECAY_DATE":null,"MEAN_MOTION_DDOT":"0.0000000000000","OBJECT_ID":"2020-001P","INCLINATION":"53.0544","OBJECT_NAME":"STARLINK-1114","ARG_OF_PERICENTER":"102.5651","SITE":"AFETR","MEAN_ELEMENT_THEORY":"SGP4","REV_AT_EPOCH":"9623","RCS_SIZE":"LARGE","FILE":"3145988","LAUNCH_DATE":"2020-01-07","TLE_LINE2":"2 44927  53.0544  42.5835 0001534 102.5651 257.5509 15.06394422 96238","BSTAR":"0.00002422000000","ECCENTRICITY":"0.00015340","MEAN_MOTION_DOT":"0.00000079","EPOCH":"2021-10-05T08:46:00.328512","COUNTRY_CODE":"US"},{"PERIOD":"95.592","EPHEMERIS_TYPE":"0","PERIAPSIS":"546.167","TLE_LINE1":"1 44928U 20001Q   21278.75967311 -.00000279  00000-0  19292-6 0  9997","CENTER_NAME":"EARTH","APOAPSIS":"548.268","MEAN_ANOMALY":"260.9693","REF_FRAME":"TEME","SEMIMAJOR_AXIS":"6925.352","GP_ID":"186304911","MEAN_MOTION_DDOT":"0.0000000000000","ELEMENT_SET_NO":"999","DECAY_DATE":null,"MEAN_MOTION":"15.06398715","RA_OF_ASC_NODE":"40.8193","CLASSIFICATION_TYPE":"U","TIME_SYSTEM":"UTC","NORAD_CAT_ID":"44928","OBJECT_TYPE":"PAYLOAD","SITE":"AFETR","ARG_OF_PERICENTER":"99.1468","OBJECT_NAME":"STARLINK-1119","INCLINATION":"53.0560","OBJECT_ID":"2020-001Q","COUNTRY_CODE":"US","EPOCH":"2021-10-05T18:13:55.756704","MEAN_MOTION_DOT":"-0.00000279","ECCENTRICITY":"0.00015170","BSTAR":"0.00000019292000","LAUNCH_DATE":"2020-01-07","TLE_LINE2":"2 44928  53.0560  40.8193 0001517  99.1468 260.9693 15.06398715 96290","FILE":"3146344","REV_AT_EPOCH":"9629","RCS_SIZE":"LARGE","MEAN_ELEMENT_THEORY":"SGP4"},{"PERIAPSIS":"546.195","TLE_LINE1":"1 44929U 20001R   21278.81127106  .00000364  00000-0  43316-4 0  9991","APOAPSIS":"548.222","CENTER_NAME":"EARTH","MEAN_ANOMALY":"250.5843","REF_FRAME":"TEME","SEMIMAJOR_AXIS":"6925.344","GP_ID":"186304661","PERIOD":"95.592","EPHEMERIS_TYPE":"0","MEAN_MOTION":"15.06401645","CLASSIFICATION_TYPE":"U","RA_OF_ASC_NODE":"40.5792","TIME_SYSTEM":"UTC","NORAD_CAT_ID":"44929","OBJECT_TYPE":"PAYLOAD","MEAN_MOTION_DDOT":"0.0000000000000","DECAY_DATE":null,"ELEMENT_SET_NO":"999","INCLINATION":"53.0547","OBJECT_ID":"2020-001R","SITE":"AFETR","ARG_OF_PERICENTER":"109.5304","OBJECT_NAME":"STARLINK-1121","TLE_LINE2":"2 44929  53.0547  40.5792 0001463 109.5304 250.5843 15.06401645 96292","LAUNCH_DATE":"2020-01-07","FILE":"3146344","REV_AT_EPOCH":"9629","RCS_SIZE":"LARGE","MEAN_ELEMENT_THEORY":"SGP4","COUNTRY_CODE":"US","EPOCH":"2021-10-05T19:28:13.819584","MEAN_MOTION_DOT":"0.00000364","ECCENTRICITY":"0.00014630","BSTAR":"0.00004331600000"},{"RCS_SIZE":"LARGE","REV_AT_EPOCH":"9624","MEAN_ELEMENT_THEORY":"SGP4","TLE_LINE2":"2 44930  53.0564  42.2315 0001553 107.0947 253.0212 15.06401322 96244","LAUNCH_DATE":"2020-01-07","FILE":"3145988","BSTAR":"0.00000707740000","EPOCH":"2021-10-05T10:42:45.739872","COUNTRY_CODE":"US","ECCENTRICITY":"0.00015530","MEAN_MOTION_DOT":"-0.00000176","OBJECT_ID":"2020-001S","INCLINATION":"53.0564","OBJECT_NAME":"STARLINK-1123","ARG_OF_PERICENTER":"107.0947","SITE":"AFETR","NORAD_CAT_ID":"44930","TIME_SYSTEM":"UTC","OBJECT_TYPE":"PAYLOAD","MEAN_MOTION":"15.06401322","CLASSIFICATION_TYPE":"U","RA_OF_ASC_NODE":"42.2315","ELEMENT_SET_NO":"999","DECAY_DATE":null,"MEAN_MOTION_DDOT":"0.0000000000000","REF_FRAME":"TEME","MEAN_ANOMALY":"253.0212","GP_ID":"186274297","SEMIMAJOR_AXIS":"6925.345","PERIAPSIS":"546.134","APOAPSIS":"548.285","CENTER_NAME":"EARTH","TLE_LINE1":"1 44930U 20001S   21278.44636273 -.00000176  00000-0  70774-5 0  9993","PERIOD":"95.592","EPHEMERIS_TYPE":"0"},{"BSTAR":"-0.00002800200000","COUNTRY_CODE":"US","EPOCH":"2021-10-05T08:35:23.524224","MEAN_MOTION_DOT":"-0.00000698","ECCENTRICITY":"0.00013500","REV_AT_EPOCH":"9697","RCS_SIZE":"LARGE","MEAN_ELEMENT_THEORY":"SGP4","TLE_LINE2":"2 44931  53.0549  42.6147 0001350 101.9384 258.1757 15.06389942 96971","LAUNCH_DATE":"2020-01-07","FILE":"3145988","OBJECT_NAME":"STARLINK-1128","SITE":"AFETR","ARG_OF_PERICENTER":"101.9384","INCLINATION":"53.0549","OBJECT_ID":"2020-001T","ELEMENT_SET_NO":"999","DECAY_DATE":null,"MEAN_MOTION_DDOT":"0.0000000000000","TIME_SYSTEM":"UTC","NORAD_CAT_ID":"44931","OBJECT_TYPE":"PAYLOAD","MEAN_MOTION":"15.06389942","CLASSIFICATION_TYPE":"U","RA_OF_ASC_NODE":"42.6147","PERIOD":"95.593","EPHEMERIS_TYPE":"0","MEAN_ANOMALY":"258.1757","REF_FRAME":"TEME","SEMIMAJOR_AXIS":"6925.379","GP_ID":"186275049","PERIAPSIS":"546.309","TLE_LINE1":"1 44931U 20001T   21278.35791116 -.00000698  00000-0 -28002-4 0  9998","APOAPSIS":"548.179","CENTER_NAME":"EARTH"}];
